{"fetched_at":"2026-07-14T17:40:23.520Z","source":"https://celestrak.org/NORAD/elements/gp.php?GROUP=oneweb&FORMAT=JSON","constellation":"oneweb","records":[{"OBJECT_NAME":"ONEWEB-0674","OBJECT_ID":"2023-029AP","EPOCH":"2026-07-14T04:51:25.881696","CLASSIFICATION_TYPE":"U","MEAN_MOTION":13.14501297,"ECCENTRICITY":0.0001624,"INCLINATION":87.8964,"RA_OF_ASC_NODE":284.3327,"ARG_OF_PERICENTER":104.9645,"MEAN_ANOMALY":255.1665,"EPHEMERIS_TYPE":0,"NORAD_CAT_ID":55833,"ELEMENT_SET_NO":999,"REV_AT_EPOCH":16296,"BSTAR":-0.00051796,"MEAN_MOTION_DOT":-0.00000179,"MEAN_MOTION_DDOT":0},{"OBJECT_NAME":"ONEWEB-0675","OBJECT_ID":"2023-029AQ","EPOCH":"2026-07-14T02:55:58.429056","CLASSIFICATION_TYPE":"U","MEAN_MOTION":13.19724102,"ECCENTRICITY":0.000225,"INCLINATION":87.9186,"RA_OF_ASC_NODE":299.6136,"ARG_OF_PERICENTER":97.1479,"MEAN_ANOMALY":262.9909,"EPHEMERIS_TYPE":0,"NORAD_CAT_ID":55834,"ELEMENT_SET_NO":999,"REV_AT_EPOCH":16247,"BSTAR":0.0000010324,"MEAN_MOTION_DOT":1.3e-7,"MEAN_MOTION_DDOT":0},{"OBJECT_NAME":"ONEWEB-0720","OBJECT_ID":"2023-029AR","EPOCH":"2026-07-13T19:27:53.709120","CLASSIFICATION_TYPE":"U","MEAN_MOTION":13.19726034,"ECCENTRICITY":0.0002112,"INCLINATION":87.9183,"RA_OF_ASC_NODE":299.6751,"ARG_OF_PERICENTER":108.7441,"MEAN_ANOMALY":251.3921,"EPHEMERIS_TYPE":0,"NORAD_CAT_ID":55835,"ELEMENT_SET_NO":999,"REV_AT_EPOCH":16235,"BSTAR":-0.000078444,"MEAN_MOTION_DOT":-1.8e-7,"MEAN_MOTION_DDOT":0},{"OBJECT_NAME":"ONEWEB-0537","OBJECT_ID":"2023-043A","EPOCH":"2026-07-14T02:20:26.279232","CLASSIFICATION_TYPE":"U","MEAN_MOTION":13.16594526,"ECCENTRICITY":0.0002205,"INCLINATION":87.9081,"RA_OF_ASC_NODE":223.4258,"ARG_OF_PERICENTER":88.0385,"MEAN_ANOMALY":272.0998,"EPHEMERIS_TYPE":0,"NORAD_CAT_ID":56046,"ELEMENT_SET_NO":999,"REV_AT_EPOCH":16250,"BSTAR":0.00015574,"MEAN_MOTION_DOT":7.2e-7,"MEAN_MOTION_DDOT":0},{"OBJECT_NAME":"ONEWEB-0538","OBJECT_ID":"2023-043B","EPOCH":"2026-07-14T02:11:18.904128","CLASSIFICATION_TYPE":"U","MEAN_MOTION":13.1659404,"ECCENTRICITY":0.0002347,"INCLINATION":87.9082,"RA_OF_ASC_NODE":223.43,"ARG_OF_PERICENTER":96.4761,"MEAN_ANOMALY":263.6638,"EPHEMERIS_TYPE":0,"NORAD_CAT_ID":56047,"ELEMENT_SET_NO":999,"REV_AT_EPOCH":16251,"BSTAR":-0.000024952,"MEAN_MOTION_DOT":3e-8,"MEAN_MOTION_DDOT":0},{"OBJECT_NAME":"ONEWEB-0546","OBJECT_ID":"2023-043C","EPOCH":"2026-07-14T03:42:30.767328","CLASSIFICATION_TYPE":"U","MEAN_MOTION":13.16593124,"ECCENTRICITY":0.0002273,"INCLINATION":87.9085,"RA_OF_ASC_NODE":223.4171,"ARG_OF_PERICENTER":78.6864,"MEAN_ANOMALY":281.4522,"EPHEMERIS_TYPE":0,"NORAD_CAT_ID":56048,"ELEMENT_SET_NO":999,"REV_AT_EPOCH":16251,"BSTAR":-0.0000059537,"MEAN_MOTION_DOT":1.1e-7,"MEAN_MOTION_DDOT":0},{"OBJECT_NAME":"ONEWEB-0547","OBJECT_ID":"2023-043D","EPOCH":"2026-07-14T02:53:17.515104","CLASSIFICATION_TYPE":"U","MEAN_MOTION":13.21827218,"ECCENTRICITY":0.0002241,"INCLINATION":87.9241,"RA_OF_ASC_NODE":238.6146,"ARG_OF_PERICENTER":102.5954,"MEAN_ANOMALY":257.5431,"EPHEMERIS_TYPE":0,"NORAD_CAT_ID":56049,"ELEMENT_SET_NO":999,"REV_AT_EPOCH":16178,"BSTAR":0.00013049,"MEAN_MOTION_DOT":6.7e-7,"MEAN_MOTION_DDOT":0},{"OBJECT_NAME":"ONEWEB-0548","OBJECT_ID":"2023-043E","EPOCH":"2026-07-14T02:28:24.081600","CLASSIFICATION_TYPE":"U","MEAN_MOTION":13.16594455,"ECCENTRICITY":0.0001589,"INCLINATION":87.9078,"RA_OF_ASC_NODE":223.4232,"ARG_OF_PERICENTER":92.2587,"MEAN_ANOMALY":267.8726,"EPHEMERIS_TYPE":0,"NORAD_CAT_ID":56050,"ELEMENT_SET_NO":999,"REV_AT_EPOCH":16250,"BSTAR":-0.00019275,"MEAN_MOTION_DOT":-6.1e-7,"MEAN_MOTION_DDOT":0},{"OBJECT_NAME":"ONEWEB-0549","OBJECT_ID":"2023-043F","EPOCH":"2026-07-14T04:33:49.428288","CLASSIFICATION_TYPE":"U","MEAN_MOTION":13.21826871,"ECCENTRICITY":0.0002461,"INCLINATION":87.9235,"RA_OF_ASC_NODE":238.606,"ARG_OF_PERICENTER":101.1843,"MEAN_ANOMALY":258.9568,"EPHEMERIS_TYPE":0,"NORAD_CAT_ID":56051,"ELEMENT_SET_NO":999,"REV_AT_EPOCH":16179,"BSTAR":-0.000028499,"MEAN_MOTION_DOT":1e-8,"MEAN_MOTION_DDOT":0},{"OBJECT_NAME":"ONEWEB-0550","OBJECT_ID":"2023-043G","EPOCH":"2026-07-14T04:14:27.655008","CLASSIFICATION_TYPE":"U","MEAN_MOTION":13.2182669,"ECCENTRICITY":0.0001869,"INCLINATION":87.9237,"RA_OF_ASC_NODE":238.6067,"ARG_OF_PERICENTER":99.3019,"MEAN_ANOMALY":260.8327,"EPHEMERIS_TYPE":0,"NORAD_CAT_ID":56052,"ELEMENT_SET_NO":999,"REV_AT_EPOCH":16179,"BSTAR":0.000020824,"MEAN_MOTION_DOT":2.2e-7,"MEAN_MOTION_DDOT":0},{"OBJECT_NAME":"ONEWEB-0551","OBJECT_ID":"2023-043H","EPOCH":"2026-07-14T03:44:03.058944","CLASSIFICATION_TYPE":"U","MEAN_MOTION":13.1554732,"ECCENTRICITY":0.0002372,"INCLINATION":87.8985,"RA_OF_ASC_NODE":253.8528,"ARG_OF_PERICENTER":103.5183,"MEAN_ANOMALY":256.6211,"EPHEMERIS_TYPE":0,"NORAD_CAT_ID":56053,"ELEMENT_SET_NO":999,"REV_AT_EPOCH":15994,"BSTAR":0.00039894,"MEAN_MOTION_DOT":0.00000163,"MEAN_MOTION_DDOT":0},{"OBJECT_NAME":"ONEWEB-0552","OBJECT_ID":"2023-043J","EPOCH":"2026-07-14T04:07:10.432992","CLASSIFICATION_TYPE":"U","MEAN_MOTION":13.21826222,"ECCENTRICITY":0.0002088,"INCLINATION":87.9229,"RA_OF_ASC_NODE":238.6128,"ARG_OF_PERICENTER":100.7617,"MEAN_ANOMALY":259.3752,"EPHEMERIS_TYPE":0,"NORAD_CAT_ID":56054,"ELEMENT_SET_NO":999,"REV_AT_EPOCH":16179,"BSTAR":0.000054459,"MEAN_MOTION_DOT":3.6e-7,"MEAN_MOTION_DDOT":0},{"OBJECT_NAME":"ONEWEB-0553","OBJECT_ID":"2023-043K","EPOCH":"2026-07-14T03:51:37.872864","CLASSIFICATION_TYPE":"U","MEAN_MOTION":13.16593419,"ECCENTRICITY":0.0002064,"INCLINATION":87.9082,"RA_OF_ASC_NODE":223.4161,"ARG_OF_PERICENTER":83.5853,"MEAN_ANOMALY":276.5513,"EPHEMERIS_TYPE":0,"NORAD_CAT_ID":56055,"ELEMENT_SET_NO":999,"REV_AT_EPOCH":16252,"BSTAR":-0.000027514,"MEAN_MOTION_DOT":2e-8,"MEAN_MOTION_DDOT":0},{"OBJECT_NAME":"ONEWEB-0554","OBJECT_ID":"2023-043L","EPOCH":"2026-07-14T03:33:23.743008","CLASSIFICATION_TYPE":"U","MEAN_MOTION":13.16594029,"ECCENTRICITY":0.0001519,"INCLINATION":87.9081,"RA_OF_ASC_NODE":223.4271,"ARG_OF_PERICENTER":95.4113,"MEAN_ANOMALY":264.7192,"EPHEMERIS_TYPE":0,"NORAD_CAT_ID":56056,"ELEMENT_SET_NO":999,"REV_AT_EPOCH":16250,"BSTAR":0.00001663,"MEAN_MOTION_DOT":1.9e-7,"MEAN_MOTION_DDOT":0},{"OBJECT_NAME":"ONEWEB-0555","OBJECT_ID":"2023-043M","EPOCH":"2026-07-14T02:38:40.009056","CLASSIFICATION_TYPE":"U","MEAN_MOTION":13.16593743,"ECCENTRICITY":0.0002223,"INCLINATION":87.9079,"RA_OF_ASC_NODE":223.4239,"ARG_OF_PERICENTER":78.0756,"MEAN_ANOMALY":282.0624,"EPHEMERIS_TYPE":0,"NORAD_CAT_ID":56057,"ELEMENT_SET_NO":999,"REV_AT_EPOCH":16250,"BSTAR":-0.000087585,"MEAN_MOTION_DOT":-2.1e-7,"MEAN_MOTION_DDOT":0},{"OBJECT_NAME":"ONEWEB-0557","OBJECT_ID":"2023-043N","EPOCH":"2026-07-14T02:59:11.224608","CLASSIFICATION_TYPE":"U","MEAN_MOTION":13.16593746,"ECCENTRICITY":0.0001374,"INCLINATION":87.908,"RA_OF_ASC_NODE":223.4308,"ARG_OF_PERICENTER":56.5692,"MEAN_ANOMALY":303.557,"EPHEMERIS_TYPE":0,"NORAD_CAT_ID":56058,"ELEMENT_SET_NO":999,"REV_AT_EPOCH":16250,"BSTAR":-0.000032203,"MEAN_MOTION_DOT":1e-8,"MEAN_MOTION_DDOT":0}]}
